[{"OBJECT_NAME":"ION SCV-008","OBJECT_ID":"2023-001AU","EPOCH":"2026-03-09T19:46:58.662912","MEAN_MOTION":15.2722664,"ECCENTRICITY":0.00151921,"INCLINATION":97.5676,"RA_OF_ASC_NODE":163.606,"ARG_OF_PERICENTER":8.542,"MEAN_ANOMALY":351.6074,"EPHEMERIS_TYPE":0,"CLASSIFICATION_TYPE":"U","NORAD_CAT_ID":55051,"ELEMENT_SET_NO":999,"REV_AT_EPOCH":17616,"BSTAR":0.00031422806,"MEAN_MOTION_DOT":8.336e-5,"MEAN_MOTION_DDOT":0},{"OBJECT_NAME":"STARLINK-32332","OBJECT_ID":"2025-003D","EPOCH":"2026-03-08T23:49:39.789696","MEAN_MOTION":15.27604214,"ECCENTRICITY":0.0002782,"INCLINATION":43.0049,"RA_OF_ASC_NODE":293.023,"ARG_OF_PERICENTER":264.0944,"MEAN_ANOMALY":95.959,"EPHEMERIS_TYPE":0,"CLASSIFICATION_TYPE":"U","NORAD_CAT_ID":62490,"ELEMENT_SET_NO":999,"REV_AT_EPOCH":6654,"BSTAR":0.0012452164,"MEAN_MOTION_DOT":0.0003419,"MEAN_MOTION_DDOT":0}]
